[{"OBJECT_NAME":"KUIPER-00222","OBJECT_ID":"2026-030U","EPOCH":"2026-03-07T06:19:10.158528","MEAN_MOTION":15.32426946,"ECCENTRICITY":0.00173568,"INCLINATION":51.8812,"RA_OF_ASC_NODE":231.2911,"ARG_OF_PERICENTER":56.79,"MEAN_ANOMALY":303.4746,"EPHEMERIS_TYPE":0,"CLASSIFICATION_TYPE":"U","NORAD_CAT_ID":67782,"ELEMENT_SET_NO":999,"REV_AT_EPOCH":471,"BSTAR":0.0019347855,"MEAN_MOTION_DOT":0.00061891,"MEAN_MOTION_DDOT":0},{"OBJECT_NAME":"KUIPER-00223","OBJECT_ID":"2026-030V","EPOCH":"2026-03-07T05:54:04.200480","MEAN_MOTION":15.34047328,"ECCENTRICITY":0.00126034,"INCLINATION":51.8838,"RA_OF_ASC_NODE":231.1861,"ARG_OF_PERICENTER":52.7313,"MEAN_ANOMALY":307.482,"EPHEMERIS_TYPE":0,"CLASSIFICATION_TYPE":"U","NORAD_CAT_ID":67783,"ELEMENT_SET_NO":999,"REV_AT_EPOCH":471,"BSTAR":0.0018822855,"MEAN_MOTION_DOT":0.00063247,"MEAN_MOTION_DDOT":0},{"OBJECT_NAME":"KUIPER-00225","OBJECT_ID":"2026-030W","EPOCH":"2026-03-07T06:53:18.589344","MEAN_MOTION":15.3583886,"ECCENTRICITY":0.00043836,"INCLINATION":51.8807,"RA_OF_ASC_NODE":230.7141,"ARG_OF_PERICENTER":31.4047,"MEAN_ANOMALY":328.72,"EPHEMERIS_TYPE":0,"CLASSIFICATION_TYPE":"U","NORAD_CAT_ID":67784,"ELEMENT_SET_NO":999,"REV_AT_EPOCH":472,"BSTAR":0.0019591751,"MEAN_MOTION_DOT":0.00069647,"MEAN_MOTION_DDOT":0},{"OBJECT_NAME":"KUIPER-00226","OBJECT_ID":"2026-030X","EPOCH":"2026-03-07T06:37:35.422752","MEAN_MOTION":15.31155414,"ECCENTRICITY":0.00192033,"INCLINATION":51.8805,"RA_OF_ASC_NODE":231.374,"ARG_OF_PERICENTER":65.9524,"MEAN_ANOMALY":294.3467,"EPHEMERIS_TYPE":0,"CLASSIFICATION_TYPE":"U","NORAD_CAT_ID":67785,"ELEMENT_SET_NO":999,"REV_AT_EPOCH":471,"BSTAR":0.0018845386,"MEAN_MOTION_DOT":0.00057941,"MEAN_MOTION_DDOT":0},{"OBJECT_NAME":"KUIPER-00259","OBJECT_ID":"2026-030Y","EPOCH":"2026-03-07T04:03:05.181408","MEAN_MOTION":15.34987344,"ECCENTRICITY":0.00079038,"INCLINATION":51.8816,"RA_OF_ASC_NODE":231.4191,"ARG_OF_PERICENTER":39.5307,"MEAN_ANOMALY":320.6254,"EPHEMERIS_TYPE":0,"CLASSIFICATION_TYPE":"U","NORAD_CAT_ID":67786,"ELEMENT_SET_NO":999,"REV_AT_EPOCH":470,"BSTAR":0.0014158449,"MEAN_MOTION_DOT":0.00048764,"MEAN_MOTION_DDOT":0},{"OBJECT_NAME":"KUIPER-00260","OBJECT_ID":"2026-030Z","EPOCH":"2026-03-07T06:41:16.567008","MEAN_MOTION":15.36396325,"ECCENTRICITY":0.00011024,"INCLINATION":51.8793,"RA_OF_ASC_NODE":230.6601,"ARG_OF_PERICENTER":33.7322,"MEAN_ANOMALY":326.3734,"EPHEMERIS_TYPE":0,"CLASSIFICATION_TYPE":"U","NORAD_CAT_ID":67787,"ELEMENT_SET_NO":999,"REV_AT_EPOCH":463,"BSTAR":0.0017400666,"MEAN_MOTION_DOT":0.00062866,"MEAN_MOTION_DDOT":0},{"OBJECT_NAME":"KUIPER-00262","OBJECT_ID":"2026-030AA","EPOCH":"2026-03-07T06:35:44.161152","MEAN_MOTION":15.36565605,"ECCENTRICITY":8.12e-6,"INCLINATION":51.8804,"RA_OF_ASC_NODE":230.6382,"ARG_OF_PERICENTER":154.8318,"MEAN_ANOMALY":205.2673,"EPHEMERIS_TYPE":0,"CLASSIFICATION_TYPE":"U","NORAD_CAT_ID":67788,"ELEMENT_SET_NO":999,"REV_AT_EPOCH":472,"BSTAR":0.0018625081,"MEAN_MOTION_DOT":0.00067731,"MEAN_MOTION_DDOT":0},{"OBJECT_NAME":"KUIPER-00266","OBJECT_ID":"2026-030AB","EPOCH":"2026-03-07T06:44:33.712800","MEAN_MOTION":15.30935179,"ECCENTRICITY":0.002217,"INCLINATION":51.88,"RA_OF_ASC_NODE":231.4017,"ARG_OF_PERICENTER":66.6743,"MEAN_ANOMALY":293.6571,"EPHEMERIS_TYPE":0,"CLASSIFICATION_TYPE":"U","NORAD_CAT_ID":67789,"ELEMENT_SET_NO":999,"REV_AT_EPOCH":471,"BSTAR":0.00047928879,"MEAN_MOTION_DOT":0.00014297,"MEAN_MOTION_DDOT":0},{"OBJECT_NAME":"KUIPER-00268","OBJECT_ID":"2026-030AC","EPOCH":"2026-03-07T06:49:30.580608","MEAN_MOTION":15.35932908,"ECCENTRICITY":0.00023999,"INCLINATION":51.8839,"RA_OF_ASC_NODE":230.706,"ARG_OF_PERICENTER":40.3779,"MEAN_ANOMALY":319.7385,"EPHEMERIS_TYPE":0,"CLASSIFICATION_TYPE":"U","NORAD_CAT_ID":67790,"ELEMENT_SET_NO":999,"REV_AT_EPOCH":472,"BSTAR":0.0018406241,"MEAN_MOTION_DOT":0.0006556,"MEAN_MOTION_DDOT":0},{"OBJECT_NAME":"KUIPER-00270","OBJECT_ID":"2026-030AD","EPOCH":"2026-03-07T05:45:21.323232","MEAN_MOTION":15.34566666,"ECCENTRICITY":0.0010685,"INCLINATION":51.8819,"RA_OF_ASC_NODE":231.1415,"ARG_OF_PERICENTER":48.7336,"MEAN_ANOMALY":311.4569,"EPHEMERIS_TYPE":0,"CLASSIFICATION_TYPE":"U","NORAD_CAT_ID":67791,"ELEMENT_SET_NO":999,"REV_AT_EPOCH":471,"BSTAR":0.0013661698,"MEAN_MOTION_DOT":0.00046432,"MEAN_MOTION_DDOT":0},{"OBJECT_NAME":"KUIPER-00274","OBJECT_ID":"2026-030AE","EPOCH":"2026-03-07T06:29:13.181280","MEAN_MOTION":15.30754414,"ECCENTRICITY":0.00177812,"INCLINATION":51.8821,"RA_OF_ASC_NODE":231.3431,"ARG_OF_PERICENTER":62.7488,"MEAN_ANOMALY":297.5305,"EPHEMERIS_TYPE":0,"CLASSIFICATION_TYPE":"U","NORAD_CAT_ID":67792,"ELEMENT_SET_NO":999,"REV_AT_EPOCH":471,"BSTAR":0.0020482396,"MEAN_MOTION_DOT":0.00062206,"MEAN_MOTION_DDOT":0},{"OBJECT_NAME":"KUIPER-00275","OBJECT_ID":"2026-030AF","EPOCH":"2026-03-07T04:07:41.431584","MEAN_MOTION":15.34625009,"ECCENTRICITY":0.00091996,"INCLINATION":51.885,"RA_OF_ASC_NODE":231.4487,"ARG_OF_PERICENTER":46.652,"MEAN_ANOMALY":313.5231,"EPHEMERIS_TYPE":0,"CLASSIFICATION_TYPE":"U","NORAD_CAT_ID":67793,"ELEMENT_SET_NO":999,"REV_AT_EPOCH":470,"BSTAR":0.00096474808,"MEAN_MOTION_DOT":0.00032662,"MEAN_MOTION_DDOT":0},{"OBJECT_NAME":"KUIPER-00276","OBJECT_ID":"2026-030AG","EPOCH":"2026-03-07T06:34:48.662976","MEAN_MOTION":15.30619004,"ECCENTRICITY":0.00190493,"INCLINATION":51.8811,"RA_OF_ASC_NODE":231.3656,"ARG_OF_PERICENTER":60.4845,"MEAN_ANOMALY":299.8036,"EPHEMERIS_TYPE":0,"CLASSIFICATION_TYPE":"U","NORAD_CAT_ID":67794,"ELEMENT_SET_NO":999,"REV_AT_EPOCH":471,"BSTAR":-0.00030639512,"MEAN_MOTION_DOT":-9.617e-5,"MEAN_MOTION_DDOT":0},{"OBJECT_NAME":"KUIPER-00279","OBJECT_ID":"2026-030AH","EPOCH":"2026-03-07T07:04:17.150016","MEAN_MOTION":15.35328668,"ECCENTRICITY":0.00080032,"INCLINATION":51.88,"RA_OF_ASC_NODE":230.7617,"ARG_OF_PERICENTER":40.5895,"MEAN_ANOMALY":319.5687,"EPHEMERIS_TYPE":0,"CLASSIFICATION_TYPE":"U","NORAD_CAT_ID":67795,"ELEMENT_SET_NO":999,"REV_AT_EPOCH":472,"BSTAR":0.0020129158,"MEAN_MOTION_DOT":0.00070458,"MEAN_MOTION_DDOT":0}]
